[{"OBJECT_NAME":"YUNHAI-2 01B","OBJECT_ID":"2018-112B","EPOCH":"2026-03-09T18:01:16.468320","MEAN_MOTION":14.28967374,"ECCENTRICITY":0.00050306,"INCLINATION":50.0104,"RA_OF_ASC_NODE":169.9221,"ARG_OF_PERICENTER":231.5656,"MEAN_ANOMALY":128.4808,"EPHEMERIS_TYPE":0,"CLASSIFICATION_TYPE":"U","NORAD_CAT_ID":43910,"ELEMENT_SET_NO":999,"REV_AT_EPOCH":37602,"BSTAR":7.0397417e-5,"MEAN_MOTION_DOT":1.8e-7,"MEAN_MOTION_DDOT":0},{"OBJECT_NAME":"CZ-6A DEB","OBJECT_ID":"2024-140GA","EPOCH":"2026-03-09T12:43:04.460736","MEAN_MOTION":14.53646129,"ECCENTRICITY":0.01116027,"INCLINATION":88.9535,"RA_OF_ASC_NODE":279.2826,"ARG_OF_PERICENTER":235.0625,"MEAN_ANOMALY":124.0062,"EPHEMERIS_TYPE":0,"CLASSIFICATION_TYPE":"U","NORAD_CAT_ID":60799,"ELEMENT_SET_NO":999,"REV_AT_EPOCH":8344,"BSTAR":0.00012881047,"MEAN_MOTION_DOT":6.02e-6,"MEAN_MOTION_DDOT":0}]
